0 COSMOS 1275 DEB
1 12699U 81053AT  13281.73999944  .00001032  00000-0  10132-2 0   506
2 12699 082.9522 182.4061 0089782 131.7168 295.6183 13.76213936606333
0 COSMOS 1275 DEB
1 12699U 81053AT  13284.15036297  .00001125  00000-0  11062-2 0   515
2 12699 082.9524 180.6197 0090028 125.0017 357.4486 13.76220240606664
0 COSMOS 1275 DEB
1 12699U 81053AT  13286.46535895  .00001093  00000-0  10733-2 0   528
2 12699 082.9522 178.9038 0090271 118.5655 306.8263 13.76224816606980
0 COSMOS 1275 DEB
1 12699U 81053AT  13288.49923241  .00001399  00000-0  13784-2 0   538
2 12699 082.9518 177.3962 0090436 112.9245 303.4353 13.76230525607269
0 COSMOS 1275 DEB
1 12699U 81053AT  13290.75453821  .00001243  00000-0  12224-2 0   549
2 12699 082.9515 175.7246 0090632 106.6909 317.1319 13.76236494607577
0 COSMOS 1275 DEB
1 12699U 81053AT  13292.87499631  .00001317  00000-0  12963-2 0   556
2 12699 082.9514 174.1526 0090807 100.8391 022.7757 13.76241215607869
0 COSMOS 1275 DEB
1 12699U 81053AT  13294.97972815  .00001316  00000-0  12950-2 0   565
2 12699 082.9514 172.5920 0090969 095.0385 010.5353 13.76246868608155
